KAITUO 1B               
1 40912U 15049P   17317.06881501  .00002756  00000-0  13774-3 0  9998
2 40912  97.4517 322.5517 0017156  48.7276 358.1009 15.18170940118877
TIANWANG 1C (TW-1C)     
1 40926U 15051B   17317.20154317  .00012518  00000-0  26187-3 0  9999
2 40926  97.2132 355.7171 0010861 358.6793  74.4191 15.45540274119917
TIANWANG 1B (TW-1B)     
1 40927U 15051C   17317.11886286  .00012789  00000-0  27811-3 0  9992
2 40927  97.2219 355.5827 0011144  10.7710  50.3083 15.44387094119832
TIANWANG 1A (TW-1A)     
1 40928U 15051D   17317.07211179  .00004871  00000-0  13478-3 0  9998
2 40928  97.2120 350.1945 0013218  30.5133  21.4815 15.37379525119563
LAPAN-A2 (IO-86)        
1 40931U 15052B   17317.18416012  .00000740  00000-0  14103-4 0  9996
2 40931   6.0011 250.3423 0012628 193.1086 166.8753 14.76554407115021
LQSAT                   
1 40958U 15057A   17317.21957830  .00000095  00000-0  22536-4 0  9994
2 40958  97.9653  29.8330 0017075 312.8459  47.1344 14.72999863113055
CHUBUSAT-2              
1 41338U 16012B   17316.90038410  .00000530  00000-0  34942-4 0  9996
2 41338  31.0032 247.6991 0013797  91.9908 268.2308 14.99864667 95330
CHUBUSAT-3              
1 41339U 16012C   17317.20787779  .00000616  00000-0  41475-4 0  9994
2 41339  31.0096 244.6576 0013616 101.9988 258.2181 15.00061834 95366
OUFTI-1                 
1 41458U 16025C   17317.19096501  .00003139  00000-0  16749-3 0  9992
2 41458  98.1694   3.2430 0173511 150.9342 210.1645 15.03915561 84967
E-ST@R-II               
1 41459U 16025D   17317.09671710  .00002659  00000-0  14347-3 0  9991
2 41459  98.1656   3.0586 0173763 151.8126 209.2649 15.03684046 84947
AAUSAT 4                
1 41460U 16025E   17317.12843474  .00004705  00000-0  24828-3 0  9994
2 41460  98.1632   3.3069 0166436 149.1495 211.9617 15.04855209 84981
NUSAT 1 (LO-87)         
1 41557U 16033B   17317.19481664  .00002040  00000-0  78022-4 0  9992
2 41557  97.4538  36.6824 0013631 194.8611 165.2229 15.27684345 81172
BEESAT-4                
1 41619U 16040W   17316.86938749  .00002095  00000-0  96372-4 0  9991
2 41619  97.4457  17.7322 0010221 267.6800  92.3265 15.21419514 65197
PRATHAM                 
1 41783U 16059A   17316.86293042  .00000093  00000-0  27476-4 0  9998
2 41783  98.1495  16.5578 0034666  56.0520 304.3969 14.62877773 60334
ALSAT 1N                
1 41789U 16059G   17317.13814455  .00000147  00000-0  37011-4 0  9998
2 41789  98.1496  17.6211 0029477  48.9941 311.3810 14.64098968 60402
NAYIF-1 (EO-88)         
1 42017U 17008BX  17316.89368885  .00002202  00000-0  94727-4 0  9992
2 42017  97.4784  17.9759 0007986  66.9806 293.2273 15.23689324 41127
LILACSAT-1              
1 42725U 98067ME  17317.16995878  .00016758  00000-0  20624-3 0  9996
2 42725  51.6398  12.1132 0004798 133.1593 226.9802 15.60361261 26690
MAX VALIER SAT          
1 42778U 17036P   17317.14163263  .00001746  00000-0  82170-4 0  9990
2 42778  97.4345  15.1229 0014444 105.1407 255.1427 15.20805129 21661
